{
  "type": "FeatureCollection",
  "features": [
    {
      "type": "Feature",
      "properties": {
        "norad_id": 34962,
        "name": "COSMOS 2251 DEB",
        "group": "cosmos-2251-debris",
        "lat": 33.066057777516235,
        "lon": -142.95170383444648,
        "alt_km": 731.2404990054984,
        "timestamp": "2025-12-05T19:30:25.962584+00:00",
        "meta_object_name": "COSMOS 2251 DEB",
        "meta_object_id": "1993-036AER",
        "meta_epoch": "2025-12-04T15:07:49.652256",
        "meta_mean_motion": 14.46479821,
        "meta_eccentricity": 0.0018617,
        "meta_inclination": 74.0306,
        "meta_ra_of_asc_node": 208.5113,
        "meta_arg_of_pericenter": 322.5014,
        "meta_mean_anomaly": 37.4844,
        "meta_ephemeris_type": 0,
        "meta_classification_type": "U",
        "meta_norad_cat_id": 34962,
        "meta_element_set_no": 999,
        "meta_rev_at_epoch": 87461,
        "meta_bstar": 0.0008876,
        "meta_mean_motion_dot": 3.175e-05,
        "meta_mean_motion_ddot": 0,
        "tle_line1": "1 34962U 93036AER 25338.63043579  .00003175  00000+0  88760-3 0  9990",
        "tle_line2": "2 34962  74.0306 208.5113 0018617 322.5014  37.4844 14.46479821874618"
      },
      "geometry": {
        "type": "Point",
        "coordinates": [
          -142.95170383444648,
          33.066057777516235
        ]
      }
    },
    {
      "type": "Feature",
      "properties": {
        "norad_id": 34963,
        "name": "COSMOS 2251 DEB",
        "group": "cosmos-2251-debris",
        "lat": 0.3631590627412948,
        "lon": -124.43433032683598,
        "alt_km": 716.4391466241277,
        "timestamp": "2025-12-05T19:30:25.962594+00:00",
        "meta_object_name": "COSMOS 2251 DEB",
        "meta_object_id": "1993-036AES",
        "meta_epoch": "2025-12-03T12:04:13.425888",
        "meta_mean_motion": 14.50919507,
        "meta_eccentricity": 0.00426303,
        "meta_inclination": 74.172,
        "meta_ra_of_asc_node": 59.975,
        "meta_arg_of_pericenter": 258.0433,
        "meta_mean_anomaly": 101.5948,
        "meta_ephemeris_type": 0,
        "meta_classification_type": "U",
        "meta_norad_cat_id": 34963,
        "meta_element_set_no": 999,
        "meta_rev_at_epoch": 86667,
        "meta_bstar": 0.0019734097,
        "meta_mean_motion_dot": 7.865e-05,
        "meta_mean_motion_ddot": 0,
        "tle_line1": "1 34963U 93036AES 25337.50293317  .00007865  00000+0  19734-2 0  9997",
        "tle_line2": "2 34963  74.1720  59.9750 0042630 258.0433 101.5948 14.50919507866675"
      },
      "geometry": {
        "type": "Point",
        "coordinates": [
          -124.43433032683598,
          0.3631590627412948
        ]
      }
    },
    {
      "type": "Feature",
      "properties": {
        "norad_id": 34964,
        "name": "COSMOS 2251 DEB",
        "group": "cosmos-2251-debris",
        "lat": 15.822520837115436,
        "lon": 4.572079115612438,
        "alt_km": 1034.310606649431,
        "timestamp": "2025-12-05T19:30:25.962605+00:00",
        "meta_object_name": "COSMOS 2251 DEB",
        "meta_object_id": "1993-036AET",
        "meta_epoch": "2025-12-01T10:51:07.970112",
        "meta_mean_motion": 14.00515212,
        "meta_eccentricity": 0.02132053,
        "meta_inclination": 73.9732,
        "meta_ra_of_asc_node": 7.4842,
        "meta_arg_of_pericenter": 228.1536,
        "meta_mean_anomaly": 130.1229,
        "meta_ephemeris_type": 0,
        "meta_classification_type": "U",
        "meta_norad_cat_id": 34964,
        "meta_element_set_no": 999,
        "meta_rev_at_epoch": 84320,
        "meta_bstar": 0.0017784594,
        "meta_mean_motion_dot": 3.191e-05,
        "meta_mean_motion_ddot": 0,
        "tle_line1": "1 34964U 93036AET 25335.45217558  .00003191  00000+0  17785-2 0  9995",
        "tle_line2": "2 34964  73.9732   7.4842 0213205 228.1536 130.1229 14.00515212843200"
      },
      "geometry": {
        "type": "Point",
        "coordinates": [
          4.572079115612438,
          15.822520837115436
        ]
      }
    },
    {
      "type": "Feature",
      "properties": {
        "norad_id": 34965,
        "name": "COSMOS 2251 DEB",
        "group": "cosmos-2251-debris",
        "lat": -31.366865575554407,
        "lon": 131.39535669411717,
        "alt_km": 725.6030942282578,
        "timestamp": "2025-12-05T19:30:25.962615+00:00",
        "meta_object_name": "COSMOS 2251 DEB",
        "meta_object_id": "1993-036AEU",
        "meta_epoch": "2025-12-03T17:56:13.193952",
        "meta_mean_motion": 14.48667662,
        "meta_eccentricity": 0.00265132,
        "meta_inclination": 74.0501,
        "meta_ra_of_asc_node": 145.3009,
        "meta_arg_of_pericenter": 273.8401,
        "meta_mean_anomaly": 85.9727,
        "meta_ephemeris_type": 0,
        "meta_classification_type": "U",
        "meta_norad_cat_id": 34965,
        "meta_element_set_no": 999,
        "meta_rev_at_epoch": 86983,
        "meta_bstar": 0.00048063509,
        "meta_mean_motion_dot": 1.791e-05,
        "meta_mean_motion_ddot": 0,
        "tle_line1": "1 34965U 93036AEU 25337.74737493  .00001791  00000+0  48064-3 0  9994",
        "tle_line2": "2 34965  74.0501 145.3009 0026513 273.8401  85.9727 14.48667662869832"
      },
      "geometry": {
        "type": "Point",
        "coordinates": [
          131.39535669411717,
          -31.366865575554407
        ]
      }
    },
    {
      "type": "Feature",
      "properties": {
        "norad_id": 34967,
        "name": "COSMOS 2251 DEB",
        "group": "cosmos-2251-debris",
        "lat": -11.490884900556905,
        "lon": -96.56213224103143,
        "alt_km": 738.0586098078156,
        "timestamp": "2025-12-05T19:30:25.962625+00:00",
        "meta_object_name": "COSMOS 2251 DEB",
        "meta_object_id": "1993-036AEW",
        "meta_epoch": "2025-12-01T02:30:41.683104",
        "meta_mean_motion": 14.44168549,
        "meta_eccentricity": 0.00374829,
        "meta_inclination": 73.9933,
        "meta_ra_of_asc_node": 275.5612,
        "meta_arg_of_pericenter": 64.8384,
        "meta_mean_anomaly": 295.6653,
        "meta_ephemeris_type": 0,
        "meta_classification_type": "U",
        "meta_norad_cat_id": 34967,
        "meta_element_set_no": 999,
        "meta_rev_at_epoch": 64789,
        "meta_bstar": 0.00079995093,
        "meta_mean_motion_dot": 2.741e-05,
        "meta_mean_motion_ddot": 0,
        "tle_line1": "1 34967U 93036AEW 25335.10464911  .00002741  00000+0  79995-3 0  9999",
        "tle_line2": "2 34967  73.9933 275.5612 0037482  64.8384 295.6653 14.44168549647896"
      },
      "geometry": {
        "type": "Point",
        "coordinates": [
          -96.56213224103143,
          -11.490884900556905
        ]
      }
    },
    {
      "type": "Feature",
      "properties": {
        "norad_id": 34968,
        "name": "COSMOS 2251 DEB",
        "group": "cosmos-2251-debris",
        "lat": -6.762144593736193,
        "lon": 82.21858756784829,
        "alt_km": 757.3939803725225,
        "timestamp": "2025-12-05T19:30:25.962635+00:00",
        "meta_object_name": "COSMOS 2251 DEB",
        "meta_object_id": "1993-036AEX",
        "meta_epoch": "2025-12-04T11:23:51.945792",
        "meta_mean_motion": 14.59382694,
        "meta_eccentricity": 0.0086243,
        "meta_inclination": 74.039,
        "meta_ra_of_asc_node": 262.8231,
        "meta_arg_of_pericenter": 25.2675,
        "meta_mean_anomaly": 335.267,
        "meta_ephemeris_type": 0,
        "meta_classification_type": "U",
        "meta_norad_cat_id": 34968,
        "meta_element_set_no": 999,
        "meta_rev_at_epoch": 88357,
        "meta_bstar": 0.00037097,
        "meta_mean_motion_dot": 1.818e-05,
        "meta_mean_motion_ddot": 0,
        "tle_line1": "1 34968U 93036AEX 25338.47490678  .00001818  00000+0  37097-3 0  9993",
        "tle_line2": "2 34968  74.0390 262.8231 0086243  25.2675 335.2670 14.59382694883577"
      },
      "geometry": {
        "type": "Point",
        "coordinates": [
          82.21858756784829,
          -6.762144593736193
        ]
      }
    },
    {
      "type": "Feature",
      "properties": {
        "norad_id": 34969,
        "name": "COSMOS 2251 DEB",
        "group": "cosmos-2251-debris",
        "lat": -51.44215872192666,
        "lon": -123.12124408536093,
        "alt_km": 767.0087215391886,
        "timestamp": "2025-12-05T19:30:25.962673+00:00",
        "meta_object_name": "COSMOS 2251 DEB",
        "meta_object_id": "1993-036AEY",
        "meta_epoch": "2025-12-04T20:37:39.572256",
        "meta_mean_motion": 14.32236918,
        "meta_eccentricity": 0.0074071,
        "meta_inclination": 74.0141,
        "meta_ra_of_asc_node": 37.5419,
        "meta_arg_of_pericenter": 172.6306,
        "meta_mean_anomaly": 187.5953,
        "meta_ephemeris_type": 0,
        "meta_classification_type": "U",
        "meta_norad_cat_id": 34969,
        "meta_element_set_no": 999,
        "meta_rev_at_epoch": 65024,
        "meta_bstar": 0.00058667,
        "meta_mean_motion_dot": 1.605e-05,
        "meta_mean_motion_ddot": 0,
        "tle_line1": "1 34969U 93036AEY 25338.85948579  .00001605  00000+0  58667-3 0  9994",
        "tle_line2": "2 34969  74.0141  37.5419 0074071 172.6306 187.5953 14.32236918650247"
      },
      "geometry": {
        "type": "Point",
        "coordinates": [
          -123.12124408536093,
          -51.44215872192666
        ]
      }
    }
  ]
}